#aV2011  7 17  0  0   .00000000      96 DD+AD WGS84 FIT  NGA
## 1645       .00000000   900.00000000 55759  .0000000000000
+   31     2  3  4  5  6  7  8  9 10 11 12 13 14 15 16 17 18
+         19 20 21 22 23 24 25 26 27 28 29 30 31 32  0  0  0
+          0  0  0  0  0  0  0  0  0  0  0  0  0  0  0  0  0
+          0  0  0  0  0  0  0  0  0  0  0  0  0  0  0  0  0
+          0  0  0  0  0  0  0  0  0  0  0  0  0  0  0  0  0
++         0  0  0  0  0  0  0  0  0  0  0  0  0  0  0  0  0
++         0  0  0  0  0  0  0  0  0  0  0  0  0  0  0  0  0
++         0  0  0  0  0  0  0  0  0  0  0  0  0  0  0  0  0
++         0  0  0  0  0  0  0  0  0  0  0  0  0  0  0  0  0
++         0  0  0  0  0  0  0  0  0  0  0  0  0  0  0  0  0
%c cc cc ccc ccc cccc cccc cccc cccc ccccc ccccc ccccc ccccc
%c cc cc ccc ccc cccc cccc cccc cccc ccccc ccccc ccccc ccccc
%f  0.0000000  0.000000000  0.00000000000  0.000000000000000
%f  0.0000000  0.000000000  0.00000000000  0.000000000000000
%i    0    0    0    0      0      0      0      0         0
%i    0    0    0    0      0      0      0      0         0
/*      NGA, ST. LOUIS,MO.                                  
/*   EPHEMERIS COMPUTED FROM  3 DAYS OF DATA                
/* CCCCCCCCCCCCCCCCCCCCCCCCCCCCCCCCCCCCCCCCCCCCCCCCCCCCCCCCC
/* CCCCCCCCCCCCCCCCCCCCCCCCCCCCCCCCCCCCCCCCCCCCCCCCCCCCCCCCC
*  2011  7 17 16 15   .00000000                                                 
P  2  -6601.981532  14718.799664  21099.312136    347.032010                    
V  2 -26466.637880  -4341.153755  -5758.310076       .018000                    
P  3   8819.629519 -24105.711562  -6578.669925    742.968413                    
V  3   7357.727095  -4809.382301  29722.538329       .049582                    
P  4 -21293.817332   7311.954382  14140.775249    174.878282                    
V  4 -17673.691807  -5160.183723 -23249.330167       .108879                    
P  5   -675.250507  23145.855170  12901.422170   -190.639705                    
V  5  -8417.850861 -14368.501783  25417.747079      -.055326                    
P  6  13773.388982 -22414.561304  -2368.270500    -31.857965                    
V  6   4947.141504   -434.739405  31172.064565      -.852739                    
P  7 -25911.181088  -5854.122100   2533.301103     18.265459                    
V  7   3490.087181  -1648.031831  31695.523795       .014792                    
P  8 -25837.827690  -1397.067619  -7158.856133      8.543083                    
V  8  -8450.097559  -3196.820144  30458.828616       .000564                    
P  9  13250.503929  14235.776491 -18639.855094     93.310801                    
V  9 -22426.234498  -1889.532883 -17939.723968       .024404                    
P 10 -12657.465042   9422.562554  21102.639210     -7.041498                    
V 10 -10197.627939 -25444.411928   5562.035161      -.012820                    
P 11 -11732.945973 -14527.085080 -19317.051550   -168.865678                    
V 11  23752.301843  -4261.254764 -11067.832080      -.033229                    
P 12  11995.248903  23375.663874   4508.265429      9.753632                    
V 12    -22.257329   6062.219056 -31292.822036       .025122                    
P 13 -15058.797096  -4406.933993  21300.265779    260.698301                    
V 13  18319.246983 -20231.443415   8636.834791      -.017515                    
P 14  20663.534568 -13042.727278 -10060.452591    162.100561                    
V 14  -7163.070837  11079.646425 -28755.859660       .020784                    
P 15   1484.279577  19346.744143 -18055.787653   -115.445213                    
V 15 -15438.719594  17197.070360  17315.244257       .020146                    
P 16    990.014872 -23110.308486  12791.613378   -186.010806                    
V 16   7402.431639  14676.647620  26266.771733      -.024176                    
P 17 -20374.486912  13858.164631  -9472.631718    182.136799                    
V 17   5867.967179 -11146.099971 -28724.514307      -.011616                    
P 18  17435.871167   7913.798531 -18225.829158    147.665690                    
V 18   6728.286177  22883.373286  15708.293725       .019055                    
P 19   2924.810218 -20236.486685 -16764.575513   -163.042601                    
V 19  16172.154908 -14183.148824  20309.285787      -.041134                    
P 20 -14398.533853 -21460.862480   6123.062373     50.791215                    
V 20     19.126545  -8721.046901 -29765.811952       .003388                    
P 21  26527.708754   4427.506504    326.715489   -158.487507                    
V 21   -412.038115   3191.931855  30695.337171      -.025719                    
P 22  14349.326395  -6664.587635 -21152.291696    146.239619                    
V 22   9781.196465  25598.810808  -1531.205721      -.005723                    
P 23  -7932.503847 -13669.154529  21302.888320    291.169331                    
V 23  17669.608633 -20531.914776  -6949.398548      -.028748                    
P 24 -16526.657552 -14456.105432 -15099.666032    407.431746                    
V 24  19217.802645   1760.511059 -22346.464151       .031660                    
P 25  16823.765613  14527.637842  14532.224160      9.501116                    
V 25   5140.232417  17862.788363 -23737.628844       .018709                    
P 26 -10036.062351  21853.636219 -11408.782358    -93.906139                    
V 26 -10669.217459   8768.497553  28008.050151      -.120580                    
P 27   8046.438103  14440.747631 -20225.530929    285.595718                    
V 27 -26950.626441  -2038.744737 -11468.803039       .037360                    
P 28 -14764.046648   1882.382787 -21498.119084     52.586793                    
V 28  -9118.663425 -26986.868676   3562.798975       .027641                    
P 29  14792.222070   5656.692630  21390.795399    223.949411                    
V 29 -17169.307679  20831.260844   6431.059937       .029513                    
P 30   7141.642294 -16634.586965  19011.797987     24.623671                    
V 30  11464.161313  22308.089706  14904.930454       .049358                    
P 31  18805.935582  -8548.412285  17012.740233    112.363240                    
V 31  20633.732500   4560.270421 -20552.509708       .058276                    
P 32  -7633.655147 -25680.858896     20.829789   -293.391059                    
V 32   2640.185591   -469.821401 -31335.729428      -.070873                    
EOF
